STARLINK-36809          
1 67929U 26036AB  26077.58334491  .00044557  00000+0  76261-3 0  9998
2 67929  43.0001 196.1498 0001403 263.2386 303.0877 15.50519302  5070
STARLINK-36865          
1 67930U 26036AC  26077.58334491 -.01892171  00000+0 -31897-1 0  9990
2 67930  43.0002 195.8358 0001461 279.1520  54.2852 15.54347008  5078
STARLINK-36781          
1 67931U 26036AD  26077.58334491 -.01883413  00000+0 -32424-1 0  9997
2 67931  43.0005 195.8827 0001368 275.9469  38.8995 15.53761825  5077
STARLINK-36301          
1 67932U 26037A   26076.91253539  .00325484  00000+0  14845-2 0  9992
2 67932  42.9982 148.1836 0001165   1.0372 359.0502 15.82107586  4551
STARLINK-36852          
1 67933U 26037B   26077.58334491 -.01839703  00000+0 -22998-1 0  9998
2 67933  42.9997 144.4908 0001642 281.0947 138.2213 15.62083935  4628
STARLINK-36861          
1 67934U 26037C   26077.48113475  .00264558  00000+0  13363-2 0  9999
2 67934  42.9986 144.7050 0005300 127.0312 233.1044 15.80047963  4648
STARLINK-36860          
1 67935U 26037D   26077.58334491 -.01901268  00000+0 -19059-1 0  9990
2 67935  42.9993 144.2654 0001268 290.0365 219.6688 15.67670553  4623
STARLINK-36848          
1 67936U 26037E   26077.58334491 -.01874871  00000+0 -20769-1 0  9990
2 67936  42.9996 144.3253 0001221 292.5059 192.5102 15.65179812  4629
STARLINK-36370          
1 67937U 26037F   26077.58334491 -.01916476  00000+0 -18532-1 0  9994
2 67937  42.9993 144.2288 0001150 287.3162 237.2445 15.68564943  4625
STARLINK-36371          
1 67938U 26037G   26077.58334491 -.01872580  00000+0 -15663-1 0  9994
2 67938  42.9995 144.1102 0001216 281.4534 290.1797 15.72450525  4626
STARLINK-36246          
1 67939U 26037H   26077.58334491 -.01874238  00000+0 -20095-1 0  9992
2 67939  42.9994 144.2761 0001222 294.0103 210.9352 15.65984346  4540
STARLINK-36907          
1 67940U 26037J   26076.90508803  .00482279  00000+0  21717-2 0  9999
2 67940  42.9984 148.1227 0002089 303.2284  56.8387 15.81976946  4557
STARLINK-36927          
1 67941U 26037K   26077.58334491 -.01871852  00000+0 -14272-1 0  9994
2 67941  42.9994 144.0064 0001308 277.3036 335.4830 15.74571005  4628
STARLINK-36914          
1 67942U 26037L   26077.47472484  .00431947  00000+0  19428-2 0  9991
2 67942  42.9979 144.6525 0000879 212.4452 147.6366 15.82129224  4644
STARLINK-36851          
1 67943U 26037M   26077.58334491 -.01874750  00000+0 -13685-1 0  9993
2 67943  42.9993 144.0240 0001336 275.0454 330.8204 15.75561209  4625
STARLINK-36892          
1 67944U 26037N   26077.58334491 -.01874224  00000+0 -13200-1 0  9993
2 67944  42.9993 143.9927 0001231 276.5646 342.0308 15.76362795  4629
