[{"OBJECT_NAME":"STARLINK-36809","OBJECT_ID":"2026-036AB","EPOCH":"2026-03-18T14:00:01.000224","MEAN_MOTION":15.50519302,"ECCENTRICITY":0.00014035,"INCLINATION":43.0001,"RA_OF_ASC_NODE":196.1498,"ARG_OF_PERICENTER":263.2386,"MEAN_ANOMALY":303.0877,"EPHEMERIS_TYPE":0,"CLASSIFICATION_TYPE":"U","NORAD_CAT_ID":67929,"ELEMENT_SET_NO":999,"REV_AT_EPOCH":507,"BSTAR":0.00076261312,"MEAN_MOTION_DOT":0.00044557,"MEAN_MOTION_DDOT":0},{"OBJECT_NAME":"STARLINK-36865","OBJECT_ID":"2026-036AC","EPOCH":"2026-03-18T14:00:01.000224","MEAN_MOTION":15.54347008,"ECCENTRICITY":0.00014611,"INCLINATION":43.0002,"RA_OF_ASC_NODE":195.8358,"ARG_OF_PERICENTER":279.152,"MEAN_ANOMALY":54.2852,"EPHEMERIS_TYPE":0,"CLASSIFICATION_TYPE":"U","NORAD_CAT_ID":67930,"ELEMENT_SET_NO":999,"REV_AT_EPOCH":507,"BSTAR":-0.031897051,"MEAN_MOTION_DOT":-0.01892171,"MEAN_MOTION_DDOT":0},{"OBJECT_NAME":"STARLINK-36781","OBJECT_ID":"2026-036AD","EPOCH":"2026-03-18T14:00:01.000224","MEAN_MOTION":15.53761825,"ECCENTRICITY":0.00013687,"INCLINATION":43.0005,"RA_OF_ASC_NODE":195.8827,"ARG_OF_PERICENTER":275.9469,"MEAN_ANOMALY":38.8995,"EPHEMERIS_TYPE":0,"CLASSIFICATION_TYPE":"U","NORAD_CAT_ID":67931,"ELEMENT_SET_NO":999,"REV_AT_EPOCH":507,"BSTAR":-0.032424061,"MEAN_MOTION_DOT":-0.01883413,"MEAN_MOTION_DDOT":0},{"OBJECT_NAME":"STARLINK-36301","OBJECT_ID":"2026-037A","EPOCH":"2026-03-17T21:54:03.057696","MEAN_MOTION":15.82107586,"ECCENTRICITY":0.00011657,"INCLINATION":42.9982,"RA_OF_ASC_NODE":148.1836,"ARG_OF_PERICENTER":1.0372,"MEAN_ANOMALY":359.0502,"EPHEMERIS_TYPE":0,"CLASSIFICATION_TYPE":"U","NORAD_CAT_ID":67932,"ELEMENT_SET_NO":999,"REV_AT_EPOCH":455,"BSTAR":0.0014845044,"MEAN_MOTION_DOT":0.00325484,"MEAN_MOTION_DDOT":0},{"OBJECT_NAME":"STARLINK-36852","OBJECT_ID":"2026-037B","EPOCH":"2026-03-18T14:00:01.000224","MEAN_MOTION":15.62083935,"ECCENTRICITY":0.00016422,"INCLINATION":42.9997,"RA_OF_ASC_NODE":144.4908,"ARG_OF_PERICENTER":281.0947,"MEAN_ANOMALY":138.2213,"EPHEMERIS_TYPE":0,"CLASSIFICATION_TYPE":"U","NORAD_CAT_ID":67933,"ELEMENT_SET_NO":999,"REV_AT_EPOCH":462,"BSTAR":-0.022998135,"MEAN_MOTION_DOT":-0.01839703,"MEAN_MOTION_DDOT":0},{"OBJECT_NAME":"STARLINK-36861","OBJECT_ID":"2026-037C","EPOCH":"2026-03-18T11:32:50.042400","MEAN_MOTION":15.80047963,"ECCENTRICITY":0.00053002,"INCLINATION":42.9986,"RA_OF_ASC_NODE":144.705,"ARG_OF_PERICENTER":127.0312,"MEAN_ANOMALY":233.1044,"EPHEMERIS_TYPE":0,"CLASSIFICATION_TYPE":"U","NORAD_CAT_ID":67934,"ELEMENT_SET_NO":999,"REV_AT_EPOCH":464,"BSTAR":0.0013363334,"MEAN_MOTION_DOT":0.00264558,"MEAN_MOTION_DDOT":0},{"OBJECT_NAME":"STARLINK-36860","OBJECT_ID":"2026-037D","EPOCH":"2026-03-18T14:00:01.000224","MEAN_MOTION":15.67670553,"ECCENTRICITY":0.00012687,"INCLINATION":42.9993,"RA_OF_ASC_NODE":144.2654,"ARG_OF_PERICENTER":290.0365,"MEAN_ANOMALY":219.6688,"EPHEMERIS_TYPE":0,"CLASSIFICATION_TYPE":"U","NORAD_CAT_ID":67935,"ELEMENT_SET_NO":999,"REV_AT_EPOCH":462,"BSTAR":-0.019058613,"MEAN_MOTION_DOT":-0.01901268,"MEAN_MOTION_DDOT":0},{"OBJECT_NAME":"STARLINK-36848","OBJECT_ID":"2026-037E","EPOCH":"2026-03-18T14:00:01.000224","MEAN_MOTION":15.65179812,"ECCENTRICITY":0.00012216,"INCLINATION":42.9996,"RA_OF_ASC_NODE":144.3253,"ARG_OF_PERICENTER":292.5059,"MEAN_ANOMALY":192.5102,"EPHEMERIS_TYPE":0,"CLASSIFICATION_TYPE":"U","NORAD_CAT_ID":67936,"ELEMENT_SET_NO":999,"REV_AT_EPOCH":462,"BSTAR":-0.020769374,"MEAN_MOTION_DOT":-0.01874871,"MEAN_MOTION_DDOT":0},{"OBJECT_NAME":"STARLINK-36370","OBJECT_ID":"2026-037F","EPOCH":"2026-03-18T14:00:01.000224","MEAN_MOTION":15.68564943,"ECCENTRICITY":0.00011509,"INCLINATION":42.9993,"RA_OF_ASC_NODE":144.2288,"ARG_OF_PERICENTER":287.3162,"MEAN_ANOMALY":237.2445,"EPHEMERIS_TYPE":0,"CLASSIFICATION_TYPE":"U","NORAD_CAT_ID":67937,"ELEMENT_SET_NO":999,"REV_AT_EPOCH":462,"BSTAR":-0.018531907,"MEAN_MOTION_DOT":-0.01916476,"MEAN_MOTION_DDOT":0},{"OBJECT_NAME":"STARLINK-36371","OBJECT_ID":"2026-037G","EPOCH":"2026-03-18T14:00:01.000224","MEAN_MOTION":15.72450525,"ECCENTRICITY":0.00012165,"INCLINATION":42.9995,"RA_OF_ASC_NODE":144.1102,"ARG_OF_PERICENTER":281.4534,"MEAN_ANOMALY":290.1797,"EPHEMERIS_TYPE":0,"CLASSIFICATION_TYPE":"U","NORAD_CAT_ID":67938,"ELEMENT_SET_NO":999,"REV_AT_EPOCH":462,"BSTAR":-0.015662934,"MEAN_MOTION_DOT":-0.0187258,"MEAN_MOTION_DDOT":0},{"OBJECT_NAME":"STARLINK-36246","OBJECT_ID":"2026-037H","EPOCH":"2026-03-18T14:00:01.000224","MEAN_MOTION":15.65984346,"ECCENTRICITY":0.00012228,"INCLINATION":42.9994,"RA_OF_ASC_NODE":144.2761,"ARG_OF_PERICENTER":294.0103,"MEAN_ANOMALY":210.9352,"EPHEMERIS_TYPE":0,"CLASSIFICATION_TYPE":"U","NORAD_CAT_ID":67939,"ELEMENT_SET_NO":999,"REV_AT_EPOCH":454,"BSTAR":-0.020095294,"MEAN_MOTION_DOT":-0.01874238,"MEAN_MOTION_DDOT":0},{"OBJECT_NAME":"STARLINK-36907","OBJECT_ID":"2026-037J","EPOCH":"2026-03-17T21:43:19.605792","MEAN_MOTION":15.81976946,"ECCENTRICITY":0.0002089,"INCLINATION":42.9984,"RA_OF_ASC_NODE":148.1227,"ARG_OF_PERICENTER":303.2284,"MEAN_ANOMALY":56.8387,"EPHEMERIS_TYPE":0,"CLASSIFICATION_TYPE":"U","NORAD_CAT_ID":67940,"ELEMENT_SET_NO":999,"REV_AT_EPOCH":455,"BSTAR":0.0021716678,"MEAN_MOTION_DOT":0.00482279,"MEAN_MOTION_DDOT":0},{"OBJECT_NAME":"STARLINK-36927","OBJECT_ID":"2026-037K","EPOCH":"2026-03-18T14:00:01.000224","MEAN_MOTION":15.74571005,"ECCENTRICITY":0.00013089,"INCLINATION":42.9994,"RA_OF_ASC_NODE":144.0064,"ARG_OF_PERICENTER":277.3036,"MEAN_ANOMALY":335.483,"EPHEMERIS_TYPE":0,"CLASSIFICATION_TYPE":"U","NORAD_CAT_ID":67941,"ELEMENT_SET_NO":999,"REV_AT_EPOCH":462,"BSTAR":-0.014272345,"MEAN_MOTION_DOT":-0.01871852,"MEAN_MOTION_DDOT":0},{"OBJECT_NAME":"STARLINK-36914","OBJECT_ID":"2026-037L","EPOCH":"2026-03-18T11:23:36.226176","MEAN_MOTION":15.82129224,"ECCENTRICITY":8.794e-5,"INCLINATION":42.9979,"RA_OF_ASC_NODE":144.6525,"ARG_OF_PERICENTER":212.4452,"MEAN_ANOMALY":147.6366,"EPHEMERIS_TYPE":0,"CLASSIFICATION_TYPE":"U","NORAD_CAT_ID":67942,"ELEMENT_SET_NO":999,"REV_AT_EPOCH":464,"BSTAR":0.0019428262,"MEAN_MOTION_DOT":0.00431947,"MEAN_MOTION_DDOT":0},{"OBJECT_NAME":"STARLINK-36851","OBJECT_ID":"2026-037M","EPOCH":"2026-03-18T14:00:01.000224","MEAN_MOTION":15.75561209,"ECCENTRICITY":0.00013364,"INCLINATION":42.9993,"RA_OF_ASC_NODE":144.024,"ARG_OF_PERICENTER":275.0454,"MEAN_ANOMALY":330.8204,"EPHEMERIS_TYPE":0,"CLASSIFICATION_TYPE":"U","NORAD_CAT_ID":67943,"ELEMENT_SET_NO":999,"REV_AT_EPOCH":462,"BSTAR":-0.013684647,"MEAN_MOTION_DOT":-0.0187475,"MEAN_MOTION_DDOT":0},{"OBJECT_NAME":"STARLINK-36892","OBJECT_ID":"2026-037N","EPOCH":"2026-03-18T14:00:01.000224","MEAN_MOTION":15.76362795,"ECCENTRICITY":0.00012315,"INCLINATION":42.9993,"RA_OF_ASC_NODE":143.9927,"ARG_OF_PERICENTER":276.5646,"MEAN_ANOMALY":342.0308,"EPHEMERIS_TYPE":0,"CLASSIFICATION_TYPE":"U","NORAD_CAT_ID":67944,"ELEMENT_SET_NO":999,"REV_AT_EPOCH":462,"BSTAR":-0.013200227,"MEAN_MOTION_DOT":-0.01874224,"MEAN_MOTION_DDOT":0}]
